[{"OBJECT_NAME":"ION SCV-004","OBJECT_ID":"2022-002K","EPOCH":"2026-03-09T16:32:03.244416","MEAN_MOTION":15.29369331,"ECCENTRICITY":0.00072157,"INCLINATION":97.2961,"RA_OF_ASC_NODE":128.2294,"ARG_OF_PERICENTER":1.6783,"MEAN_ANOMALY":358.448,"EPHEMERIS_TYPE":0,"CLASSIFICATION_TYPE":"U","NORAD_CAT_ID":50993,"ELEMENT_SET_NO":999,"REV_AT_EPOCH":23008,"BSTAR":0.00023198467,"MEAN_MOTION_DOT":6.538e-5,"MEAN_MOTION_DDOT":0},{"OBJECT_NAME":"STARLINK-33625","OBJECT_ID":"2025-057W","EPOCH":"2026-03-09T05:17:50.577792","MEAN_MOTION":15.2758344,"ECCENTRICITY":0.00017171,"INCLINATION":43.0012,"RA_OF_ASC_NODE":25.8894,"ARG_OF_PERICENTER":253.4037,"MEAN_ANOMALY":106.6627,"EPHEMERIS_TYPE":0,"CLASSIFICATION_TYPE":"U","NORAD_CAT_ID":63327,"ELEMENT_SET_NO":999,"REV_AT_EPOCH":5579,"BSTAR":0.0008984879,"MEAN_MOTION_DOT":0.00024547,"MEAN_MOTION_DDOT":0}]
