ION SCV-004             
1 50993U 22002K   26068.68892644  .00006538  00000+0  23198-3 0  9998
2 50993  97.2961 128.2294 0007216   1.6783 358.4480 15.29369331230088
STARLINK-33625          
1 63327U 25057W   26068.22072428  .00024547  00000+0  89849-3 0  9991
2 63327  43.0012  25.8894 0001717 253.4037 106.6627 15.27583440 55792
